[{"OBJECT_NAME":"STARLINK-5395","OBJECT_ID":"2022-177M","EPOCH":"2026-03-09T13:16:49.340640","MEAN_MOTION":15.02536091,"ECCENTRICITY":0.0001324,"INCLINATION":43.0028,"RA_OF_ASC_NODE":134.1698,"ARG_OF_PERICENTER":263.6838,"MEAN_ANOMALY":96.3853,"EPHEMERIS_TYPE":0,"CLASSIFICATION_TYPE":"U","NORAD_CAT_ID":54831,"ELEMENT_SET_NO":999,"REV_AT_EPOCH":17693,"BSTAR":2.5505e-5,"MEAN_MOTION_DOT":1.41e-6,"MEAN_MOTION_DDOT":0},{"OBJECT_NAME":"PEGASUS R\/B","OBJECT_ID":"2000-030B","EPOCH":"2026-03-09T21:30:54.786816","MEAN_MOTION":14.17736627,"ECCENTRICITY":0.05948351,"INCLINATION":68.9475,"RA_OF_ASC_NODE":2.7595,"ARG_OF_PERICENTER":199.9382,"MEAN_ANOMALY":157.758,"EPHEMERIS_TYPE":0,"CLASSIFICATION_TYPE":"U","NORAD_CAT_ID":26375,"ELEMENT_SET_NO":999,"REV_AT_EPOCH":65081,"BSTAR":0.0003863695,"MEAN_MOTION_DOT":4.875e-5,"MEAN_MOTION_DDOT":0}]
